CCSDS_OMM_VERS = 2.0
CREATION_DATE  = 
ORIGINATOR     = 

OBJECT_NAME    = SL-14 R/B
OBJECT_ID      = 1986-046B
CENTER_NAME    = EARTH
REF_FRAME      = TEME
TIME_SYSTEM    = UTC
MEAN_ELEMENT_THEORY = SGP/SGP4

EPOCH          = 2026-01-02T07:50:08.106144
MEAN_MOTION    = 14.85513259
ECCENTRICITY   = .00245635
INCLINATION    = 82.4826
RA_OF_ASC_NODE = 142.8723
ARG_OF_PERICENTER = 87.6448
MEAN_ANOMALY   = 272.7580

EPHEMERIS_TYPE = 0
CLASSIFICATION_TYPE = U
NORAD_CAT_ID   = 16792
ELEMENT_SET_NO = 999
REV_AT_EPOCH   = 11655
BSTAR          = .12408041E-3
MEAN_MOTION_DOT = .1101E-4
MEAN_MOTION_DDOT = 0

CCSDS_OMM_VERS = 2.0
CREATION_DATE  = 
ORIGINATOR     = 

OBJECT_NAME    = SL-14 R/B
OBJECT_ID      = 1986-055B
CENTER_NAME    = EARTH
REF_FRAME      = TEME
TIME_SYSTEM    = UTC
MEAN_ELEMENT_THEORY = SGP/SGP4

EPOCH          = 2026-01-02T06:39:47.664000
MEAN_MOTION    = 14.85556262
ECCENTRICITY   = .00186438
INCLINATION    = 82.5197
RA_OF_ASC_NODE = 189.0736
ARG_OF_PERICENTER = 187.6582
MEAN_ANOMALY   = 345.3869

EPHEMERIS_TYPE = 0
CLASSIFICATION_TYPE = U
NORAD_CAT_ID   = 16882
ELEMENT_SET_NO = 999
REV_AT_EPOCH   = 10950
BSTAR          = .11887966E-3
MEAN_MOTION_DOT = .1054E-4
MEAN_MOTION_DDOT = 0

CCSDS_OMM_VERS = 2.0
CREATION_DATE  = 
ORIGINATOR     = 

OBJECT_NAME    = AJISAI (EGS)
OBJECT_ID      = 1986-061A
CENTER_NAME    = EARTH
REF_FRAME      = TEME
TIME_SYSTEM    = UTC
MEAN_ELEMENT_THEORY = SGP/SGP4

EPOCH          = 2026-01-02T07:17:41.155584
MEAN_MOTION    = 12.44514565
ECCENTRICITY   = .00113197
INCLINATION    = 50.0106
RA_OF_ASC_NODE = 297.4847
ARG_OF_PERICENTER = 117.4956
MEAN_ANOMALY   = 322.1919

EPHEMERIS_TYPE = 0
CLASSIFICATION_TYPE = U
NORAD_CAT_ID   = 16908
ELEMENT_SET_NO = 999
REV_AT_EPOCH   = 45973
BSTAR          = .12682763E-3
MEAN_MOTION_DOT = -.8E-6
MEAN_MOTION_DDOT = 0

CCSDS_OMM_VERS = 2.0
CREATION_DATE  = 
ORIGINATOR     = 

OBJECT_NAME    = COSMOS 1812
OBJECT_ID      = 1987-003A
CENTER_NAME    = EARTH
REF_FRAME      = TEME
TIME_SYSTEM    = UTC
MEAN_ELEMENT_THEORY = SGP/SGP4

EPOCH          = 2026-01-02T05:12:15.809760
MEAN_MOTION    = 15.80486504
ECCENTRICITY   = .00048593
INCLINATION    = 82.4864
RA_OF_ASC_NODE = 269.7783
ARG_OF_PERICENTER = 61.3565
MEAN_ANOMALY   = 298.8191

EPHEMERIS_TYPE = 0
CLASSIFICATION_TYPE = U
NORAD_CAT_ID   = 17295
ELEMENT_SET_NO = 999
REV_AT_EPOCH   = 13388
BSTAR          = .90324268E-3
MEAN_MOTION_DOT = .173914E-2
MEAN_MOTION_DDOT = 0

CCSDS_OMM_VERS = 2.0
CREATION_DATE  = 
ORIGINATOR     = 

OBJECT_NAME    = SL-14 R/B
OBJECT_ID      = 1987-024B
CENTER_NAME    = EARTH
REF_FRAME      = TEME
TIME_SYSTEM    = UTC
MEAN_ELEMENT_THEORY = SGP/SGP4

EPOCH          = 2026-01-01T21:54:11.803968
MEAN_MOTION    = 14.86051147
ECCENTRICITY   = .0019464
INCLINATION    = 82.5286
RA_OF_ASC_NODE = 155.5040
ARG_OF_PERICENTER = 119.7526
MEAN_ANOMALY   = 240.5630

EPHEMERIS_TYPE = 0
CLASSIFICATION_TYPE = U
NORAD_CAT_ID   = 17567
ELEMENT_SET_NO = 999
REV_AT_EPOCH   = 7821
BSTAR          = .11653E-3
MEAN_MOTION_DOT = .1047E-4
MEAN_MOTION_DDOT = 0

CCSDS_OMM_VERS = 2.0
CREATION_DATE  = 
ORIGINATOR     = 

OBJECT_NAME    = COSMOS 1833
OBJECT_ID      = 1987-027A
CENTER_NAME    = EARTH
REF_FRAME      = TEME
TIME_SYSTEM    = UTC
MEAN_ELEMENT_THEORY = SGP/SGP4

EPOCH          = 2026-01-02T07:37:48.669888
MEAN_MOTION    = 14.13034292
ECCENTRICITY   = .00235063
INCLINATION    = 70.9181
RA_OF_ASC_NODE = 105.5207
ARG_OF_PERICENTER = 303.1209
MEAN_ANOMALY   = 56.7656

EPHEMERIS_TYPE = 0
CLASSIFICATION_TYPE = U
NORAD_CAT_ID   = 17589
ELEMENT_SET_NO = 999
REV_AT_EPOCH   = 94
BSTAR          = .20875162E-3
MEAN_MOTION_DOT = .342E-5
MEAN_MOTION_DDOT = 0

CCSDS_OMM_VERS = 2.0
CREATION_DATE  = 
ORIGINATOR     = 

OBJECT_NAME    = SL-16 R/B
OBJECT_ID      = 1987-027B
CENTER_NAME    = EARTH
REF_FRAME      = TEME
TIME_SYSTEM    = UTC
MEAN_ELEMENT_THEORY = SGP/SGP4

EPOCH          = 2026-01-02T04:50:11.947488
MEAN_MOTION    = 14.17156186
ECCENTRICITY   = .00070083
INCLINATION    = 71.0031
RA_OF_ASC_NODE = 56.6019
ARG_OF_PERICENTER = 238.3912
MEAN_ANOMALY   = 121.6529

EPHEMERIS_TYPE = 0
CLASSIFICATION_TYPE = U
NORAD_CAT_ID   = 17590
ELEMENT_SET_NO = 999
REV_AT_EPOCH   = 592
BSTAR          = .29841449E-4
MEAN_MOTION_DOT = .12E-6
MEAN_MOTION_DDOT = 0

CCSDS_OMM_VERS = 2.0
CREATION_DATE  = 
ORIGINATOR     = 

OBJECT_NAME    = SL-14 R/B
OBJECT_ID      = 1987-038B
CENTER_NAME    = EARTH
REF_FRAME      = TEME
TIME_SYSTEM    = UTC
MEAN_ELEMENT_THEORY = SGP/SGP4

EPOCH          = 2026-01-02T06:39:30.726144
MEAN_MOTION    = 14.85286355
ECCENTRICITY   = .00200483
INCLINATION    = 82.5012
RA_OF_ASC_NODE = 359.3543
ARG_OF_PERICENTER = 28.4594
MEAN_ANOMALY   = 331.7712

EPHEMERIS_TYPE = 0
CLASSIFICATION_TYPE = U
NORAD_CAT_ID   = 17912
ELEMENT_SET_NO = 999
REV_AT_EPOCH   = 6937
BSTAR          = .1179962E-3
MEAN_MOTION_DOT = .104E-4
MEAN_MOTION_DDOT = 0

CCSDS_OMM_VERS = 2.0
CREATION_DATE  = 
ORIGINATOR     = 

OBJECT_NAME    = COSMOS 1844
OBJECT_ID      = 1987-041A
CENTER_NAME    = EARTH
REF_FRAME      = TEME
TIME_SYSTEM    = UTC
MEAN_ELEMENT_THEORY = SGP/SGP4

EPOCH          = 2026-01-02T05:03:50.196960
MEAN_MOTION    = 14.14537821
ECCENTRICITY   = .00289475
INCLINATION    = 70.8985
RA_OF_ASC_NODE = 174.3937
ARG_OF_PERICENTER = 124.7190
MEAN_ANOMALY   = 235.6664

EPHEMERIS_TYPE = 0
CLASSIFICATION_TYPE = U
NORAD_CAT_ID   = 17973
ELEMENT_SET_NO = 999
REV_AT_EPOCH   = 99418
BSTAR          = .15998969E-3
MEAN_MOTION_DOT = .26E-5
MEAN_MOTION_DDOT = 0

CCSDS_OMM_VERS = 2.0
CREATION_DATE  = 
ORIGINATOR     = 

OBJECT_NAME    = SL-14 R/B
OBJECT_ID      = 1987-055B
CENTER_NAME    = EARTH
REF_FRAME      = TEME
TIME_SYSTEM    = UTC
MEAN_ELEMENT_THEORY = SGP/SGP4

EPOCH          = 2026-01-02T04:45:39.824640
MEAN_MOTION    = 14.85546171
ECCENTRICITY   = .00194985
INCLINATION    = 82.4983
RA_OF_ASC_NODE = 51.7056
ARG_OF_PERICENTER = 230.8775
MEAN_ANOMALY   = 129.0709

EPHEMERIS_TYPE = 0
CLASSIFICATION_TYPE = U
NORAD_CAT_ID   = 18153
ELEMENT_SET_NO = 999
REV_AT_EPOCH   = 6006
BSTAR          = .1041957E-3
MEAN_MOTION_DOT = .927E-5
MEAN_MOTION_DDOT = 0

CCSDS_OMM_VERS = 2.0
CREATION_DATE  = 
ORIGINATOR     = 

OBJECT_NAME    = COSMOS 1867
OBJECT_ID      = 1987-060A
CENTER_NAME    = EARTH
REF_FRAME      = TEME
TIME_SYSTEM    = UTC
MEAN_ELEMENT_THEORY = SGP/SGP4

EPOCH          = 2026-01-01T17:21:24.919776
MEAN_MOTION    = 14.31490353
ECCENTRICITY   = .00138366
INCLINATION    = 65.0102
RA_OF_ASC_NODE = 134.2406
ARG_OF_PERICENTER = 273.1982
MEAN_ANOMALY   = 86.7520

EPHEMERIS_TYPE = 0
CLASSIFICATION_TYPE = U
NORAD_CAT_ID   = 18187
ELEMENT_SET_NO = 999
REV_AT_EPOCH   = 1035
BSTAR          = .66132022E-4
MEAN_MOTION_DOT = .76E-6
MEAN_MOTION_DDOT = 0

CCSDS_OMM_VERS = 2.0
CREATION_DATE  = 
ORIGINATOR     = 

OBJECT_NAME    = SL-14 R/B
OBJECT_ID      = 1988-001B
CENTER_NAME    = EARTH
REF_FRAME      = TEME
TIME_SYSTEM    = UTC
MEAN_ELEMENT_THEORY = SGP/SGP4

EPOCH          = 2026-01-02T04:32:38.830848
MEAN_MOTION    = 14.85449070
ECCENTRICITY   = .00195959
INCLINATION    = 82.5128
RA_OF_ASC_NODE = 257.9147
ARG_OF_PERICENTER = 97.5784
MEAN_ANOMALY   = 262.7658

EPHEMERIS_TYPE = 0
CLASSIFICATION_TYPE = U
NORAD_CAT_ID   = 18749
ELEMENT_SET_NO = 999
REV_AT_EPOCH   = 3215
BSTAR          = .1037124E-3
MEAN_MOTION_DOT = .921E-5
MEAN_MOTION_DDOT = 0

