SL-14 R/B               
1 16792U 86046B   26002.32648271  .00001101  00000+0  12408-3 0  9992
2 16792  82.4826 142.8723 0024563  87.6448 272.7580 14.85513259116553
SL-14 R/B               
1 16882U 86055B   26002.27763500  .00001054  00000+0  11888-3 0  9997
2 16882  82.5197 189.0736 0018643 187.6582 345.3869 14.85556262109509
AJISAI (EGS)            
1 16908U 86061A   26002.30394856 -.00000080  00000+0  12683-3 0  9994
2 16908  50.0106 297.4847 0011319 117.4956 322.1919 12.44514565459739
COSMOS 1812             
1 17295U 87003A   26002.21684965  .00173914  00000+0  90324-3 0  9998
2 17295  82.4864 269.7783 0004859  61.3565 298.8191 15.80486504133884
SL-14 R/B               
1 17567U 87024B   26001.91263662  .00001047  00000+0  11653-3 0  9991
2 17567  82.5286 155.5040 0019464 119.7526 240.5630 14.86051147 78219
COSMOS 1833             
1 17589U 87027A   26002.31792442  .00000342  00000+0  20875-3 0  9999
2 17589  70.9181 105.5207 0023506 303.1209  56.7656 14.13034292   949
SL-16 R/B               
1 17590U 87027B   26002.20152717  .00000012  00000+0  29841-4 0  9991
2 17590  71.0031  56.6019 0007008 238.3912 121.6529 14.17156186  5928
SL-14 R/B               
1 17912U 87038B   26002.27743896  .00001040  00000+0  11800-3 0  9999
2 17912  82.5012 359.3543 0020048  28.4594 331.7712 14.85286355 69374
COSMOS 1844             
1 17973U 87041A   26002.21099765  .00000260  00000+0  15999-3 0  9999
2 17973  70.8985 174.3937 0028947 124.7190 235.6664 14.14537821994183
SL-14 R/B               
1 18153U 87055B   26002.19837760  .00000927  00000+0  10420-3 0  9991
2 18153  82.4983  51.7056 0019498 230.8775 129.0709 14.85546171 60063
COSMOS 1867             
1 18187U 87060A   26001.72320509  .00000076  00000+0  66132-4 0  9997
2 18187  65.0102 134.2406 0013836 273.1982  86.7520 14.31490353 10354
SL-14 R/B               
1 18749U 88001B   26002.18933832  .00000921  00000+0  10371-3 0  9999
2 18749  82.5128 257.9147 0019595  97.5784 262.7658 14.85449070 32150
